GLOBALSTAR M068         
1 32266U 07048D   24225.86260865 -.00000035  00000+0  38116-3 0  9994
2 32266  51.9877 162.1133 0000641 152.9781 268.4300 12.62796459778601
GLOBALSTAR M079         
1 37188U 10054A   24226.47150819 -.00000083  00000+0  11394-3 0  9990
2 37188  52.0066 356.5227 0000641  82.3413 355.3745 12.62262431638277
GLOBALSTAR M074         
1 37189U 10054B   24226.48941612 -.00000083  00000+0  11527-3 0  9999
2 37189  52.0043 355.8379 0000770 102.2055 296.9768 12.62271146638278
GLOBALSTAR M076         
1 37190U 10054C   24226.14921700 -.00000060  00000+0  24481-3 0  9998
2 37190  52.0055 357.0187 0001025  78.0444  93.1627 12.62255207638237
GLOBALSTAR M077         
1 37191U 10054D   24225.66050258 -.00000058  00000+0  25623-3 0  9992
2 37191  52.0091 315.2747 0000640 115.5934  54.6254 12.62262332638188
GLOBALSTAR M075         
1 37192U 10054E   24226.24134872 -.00000088  00000+0  87828-4 0  9992
2 37192  51.9958  39.1644 0000750  82.4490  88.4300 12.62262681637484
GLOBALSTAR M073         
1 37193U 10054F   24226.52352212 -.00000071  00000+0  18476-3 0  9998
2 37193  52.0075 311.8936 0000648 102.0257 271.0060 12.62267964639032
GLOBALSTAR M083         
1 37739U 11033A   24226.14528234 -.00000098  00000+0  32467-4 0  9995
2 37739  51.9849 262.1951 0000152 153.2220 241.6037 12.62263401608314
GLOBALSTAR M088         
1 37740U 11033B   24225.88118281 -.00000079  00000+0  13668-3 0  9994
2 37740  51.9722 168.7468 0000352  17.5206  17.0805 12.62266049603468
GLOBALSTAR M091         
1 37741U 11033C   24226.48109463 -.00000091  00000+0  70595-4 0  9991
2 37741  51.9994 129.9276 0000418  19.7978 160.5039 12.62265613604582
GLOBALSTAR M085         
1 37742U 11033D   24225.87652924 -.00000091  00000+0  70296-4 0  9997
2 37742  51.9864  83.0772 0000563  56.8664 316.2610 12.62264413604767
GLOBALSTAR M081         
1 37743U 11033E   24225.92275062 -.00000082  00000+0  12087-3 0  9991
2 37743  51.9957  85.5338 0000753  44.2554  58.5840 12.62267878604912
GLOBALSTAR M089         
1 37744U 11033F   24226.50205953 -.00000085  00000+0  10667-3 0  9994
2 37744  51.9941  38.0570 0001135  79.3681 315.6944 12.62267022606085
GLOBALSTAR M084         
1 38040U 11080A   24225.83254573 -.00000075  00000+0  16071-3 0  9997
2 38040  51.9995 267.2213 0000625 110.9943  61.3438 12.62265569583722
GLOBALSTAR M080         
1 38041U 11080B   24226.17194918 -.00000076  00000+0  15528-3 0  9999
2 38041  52.0047 267.6865 0000671  88.0549 307.4764 12.62263919584036
GLOBALSTAR M082         
1 38042U 11080C   24226.19505312 -.00000080  00000+0  13322-3 0  9991
2 38042  52.0049 223.0275 0000415 224.3195 216.2586 12.62265014584776
GLOBALSTAR M092         
1 38043U 11080D   24226.54982940 -.00000081  00000+0  12553-3 0  9993
2 38043  52.0102 312.3096 0000692 119.2410 254.4587 12.62265002583310
GLOBALSTAR M090         
1 38044U 11080E   24225.97019291 -.00000078  00000+0  14566-3 0  9992
2 38044  51.9860 217.9176 0000116 230.4392 147.5776 12.62266013584692
GLOBALSTAR M086         
1 38045U 11080F   24226.23288981 -.00000075  00000+0  16207-3 0  9998
2 38045  51.9871 217.6437 0000955   4.1761   8.8939 12.62265432584772
GLOBALSTAR M097         
1 39072U 13005A   24225.94019597 -.00000090  00000+0  78999-4 0  9994
2 39072  52.0043 132.7719 0000538  25.9692 334.1201 12.62269387531881
GLOBALSTAR M093         
1 39073U 13005B   24226.15071121 -.00000086  00000+0  98437-4 0  9994
2 39073  51.9804 125.9228 0000605  18.5376 341.5512 12.62276876531985
GLOBALSTAR M094         
1 39074U 13005C   24226.54679996 -.00000092  00000+0  67676-4 0  9990
2 39074  51.9969  38.7903 0000648  67.2143 292.8792 12.62266793533548
GLOBALSTAR M096         
1 39075U 13005D   24226.56005688 -.00000102  00000+0  11103-4 0  9990
2 39075  52.0070  87.0258 0000570  41.5352 318.5558 12.62268644532794
GLOBALSTAR M078         
1 39076U 13005E   24226.13770998 -.00000073  00000+0  17135-3 0  9994
2 39076  51.9861 173.2393 0000637 206.1274 153.9560 12.62273760531221
GLOBALSTAR M095         
1 39077U 13005F   24226.16400812 -.00000070  00000+0  18655-3 0  9998
2 39077  51.9787 170.5084 0000364 285.1202  74.9624 12.62263101531233
GLOBALSTAR M087         
1 52888U 22064A   24226.49579534 -.00000060  00000+0  13007-3 0  9997
2 52888  51.9778   8.5474 0009893 146.4412 213.7117 13.37581196105191
